[{"OBJECT_NAME":"IRIDIUM 168","OBJECT_ID":"2019-002C","EPOCH":"2026-03-09T22:03:03.105216","MEAN_MOTION":14.34216679,"ECCENTRICITY":0.00021737,"INCLINATION":86.3975,"RA_OF_ASC_NODE":35.1435,"ARG_OF_PERICENTER":86.4602,"MEAN_ANOMALY":273.6843,"EPHEMERIS_TYPE":0,"CLASSIFICATION_TYPE":"U","NORAD_CAT_ID":43924,"ELEMENT_SET_NO":999,"REV_AT_EPOCH":37474,"BSTAR":0.00012475836,"MEAN_MOTION_DOT":3.69e-6,"MEAN_MOTION_DDOT":0},{"OBJECT_NAME":"SL-8 R\/B","OBJECT_ID":"1979-078B","EPOCH":"2026-03-09T19:41:08.814624","MEAN_MOTION":14.38276275,"ECCENTRICITY":0.00147916,"INCLINATION":74.0356,"RA_OF_ASC_NODE":212.3467,"ARG_OF_PERICENTER":33.7696,"MEAN_ANOMALY":326.4397,"EPHEMERIS_TYPE":0,"CLASSIFICATION_TYPE":"U","NORAD_CAT_ID":11511,"ELEMENT_SET_NO":999,"REV_AT_EPOCH":43626,"BSTAR":0.00011389851,"MEAN_MOTION_DOT":3.2e-6,"MEAN_MOTION_DDOT":0}]
